[{"OBJECT_NAME":"STARLINK-31951","OBJECT_ID":"2024-100F","EPOCH":"2026-03-18T06:48:55.683648","MEAN_MOTION":15.2756286,"ECCENTRICITY":4.352e-5,"INCLINATION":43,"RA_OF_ASC_NODE":76.654,"ARG_OF_PERICENTER":327.8232,"MEAN_ANOMALY":32.2593,"EPHEMERIS_TYPE":0,"CLASSIFICATION_TYPE":"U","NORAD_CAT_ID":59890,"ELEMENT_SET_NO":999,"REV_AT_EPOCH":10237,"BSTAR":-3.6187395e-5,"MEAN_MOTION_DOT":-1.257e-5,"MEAN_MOTION_DDOT":0},{"OBJECT_NAME":"STARLINK-31949","OBJECT_ID":"2024-100G","EPOCH":"2026-03-18T07:05:32.709408","MEAN_MOTION":15.27578338,"ECCENTRICITY":3.837e-5,"INCLINATION":42.9966,"RA_OF_ASC_NODE":76.7332,"ARG_OF_PERICENTER":238.4214,"MEAN_ANOMALY":121.66,"EPHEMERIS_TYPE":0,"CLASSIFICATION_TYPE":"U","NORAD_CAT_ID":59891,"ELEMENT_SET_NO":999,"REV_AT_EPOCH":10237,"BSTAR":4.0953026e-5,"MEAN_MOTION_DOT":8.65e-6,"MEAN_MOTION_DDOT":0},{"OBJECT_NAME":"STARLINK-31977","OBJECT_ID":"2024-100H","EPOCH":"2026-03-18T06:37:20.018496","MEAN_MOTION":15.27577758,"ECCENTRICITY":0.00010724,"INCLINATION":43.0018,"RA_OF_ASC_NODE":69.6731,"ARG_OF_PERICENTER":276.4922,"MEAN_ANOMALY":83.5807,"EPHEMERIS_TYPE":0,"CLASSIFICATION_TYPE":"U","NORAD_CAT_ID":59892,"ELEMENT_SET_NO":999,"REV_AT_EPOCH":10255,"BSTAR":3.8507916e-5,"MEAN_MOTION_DOT":7.98e-6,"MEAN_MOTION_DDOT":0},{"OBJECT_NAME":"STARLINK-31963","OBJECT_ID":"2024-100J","EPOCH":"2026-03-17T17:18:29.309184","MEAN_MOTION":15.2757583,"ECCENTRICITY":9.852e-5,"INCLINATION":43.0052,"RA_OF_ASC_NODE":80.1722,"ARG_OF_PERICENTER":271.0589,"MEAN_ANOMALY":89.015,"EPHEMERIS_TYPE":0,"CLASSIFICATION_TYPE":"U","NORAD_CAT_ID":59893,"ELEMENT_SET_NO":999,"REV_AT_EPOCH":10238,"BSTAR":4.8586879e-5,"MEAN_MOTION_DOT":1.075e-5,"MEAN_MOTION_DDOT":0},{"OBJECT_NAME":"STARLINK-31961","OBJECT_ID":"2024-100K","EPOCH":"2026-03-17T16:55:49.470816","MEAN_MOTION":15.27571559,"ECCENTRICITY":0.00020264,"INCLINATION":43.009,"RA_OF_ASC_NODE":73.1305,"ARG_OF_PERICENTER":266.4976,"MEAN_ANOMALY":93.5644,"EPHEMERIS_TYPE":0,"CLASSIFICATION_TYPE":"U","NORAD_CAT_ID":59894,"ELEMENT_SET_NO":999,"REV_AT_EPOCH":10246,"BSTAR":5.711481e-5,"MEAN_MOTION_DOT":1.309e-5,"MEAN_MOTION_DDOT":0},{"OBJECT_NAME":"STARLINK-31964","OBJECT_ID":"2024-100L","EPOCH":"2026-03-18T06:34:05.685024","MEAN_MOTION":15.27569354,"ECCENTRICITY":0.00010309,"INCLINATION":43.002,"RA_OF_ASC_NODE":76.5746,"ARG_OF_PERICENTER":263.3325,"MEAN_ANOMALY":96.7409,"EPHEMERIS_TYPE":0,"CLASSIFICATION_TYPE":"U","NORAD_CAT_ID":59895,"ELEMENT_SET_NO":999,"REV_AT_EPOCH":10242,"BSTAR":0.00010109357,"MEAN_MOTION_DOT":2.52e-5,"MEAN_MOTION_DDOT":0},{"OBJECT_NAME":"STARLINK-31905","OBJECT_ID":"2024-100M","EPOCH":"2026-03-17T17:15:28.404864","MEAN_MOTION":15.27577863,"ECCENTRICITY":0.00025596,"INCLINATION":43.0105,"RA_OF_ASC_NODE":76.6952,"ARG_OF_PERICENTER":263.8559,"MEAN_ANOMALY":96.2002,"EPHEMERIS_TYPE":0,"CLASSIFICATION_TYPE":"U","NORAD_CAT_ID":59896,"ELEMENT_SET_NO":999,"REV_AT_EPOCH":10242,"BSTAR":7.1512258e-5,"MEAN_MOTION_DOT":1.706e-5,"MEAN_MOTION_DDOT":0},{"OBJECT_NAME":"STARLINK-31928","OBJECT_ID":"2024-100N","EPOCH":"2026-03-16T18:02:48.626880","MEAN_MOTION":15.27572506,"ECCENTRICITY":5.3e-5,"INCLINATION":43.0036,"RA_OF_ASC_NODE":85.7974,"ARG_OF_PERICENTER":231.2998,"MEAN_ANOMALY":128.7806,"EPHEMERIS_TYPE":0,"CLASSIFICATION_TYPE":"U","NORAD_CAT_ID":59897,"ELEMENT_SET_NO":999,"REV_AT_EPOCH":10213,"BSTAR":-2.3292109e-5,"MEAN_MOTION_DOT":-9.02e-6,"MEAN_MOTION_DDOT":0},{"OBJECT_NAME":"STARLINK-31953","OBJECT_ID":"2024-100P","EPOCH":"2026-03-17T17:09:56.041344","MEAN_MOTION":15.27564002,"ECCENTRICITY":0.00025709,"INCLINATION":43.0105,"RA_OF_ASC_NODE":76.6675,"ARG_OF_PERICENTER":264.355,"MEAN_ANOMALY":95.7009,"EPHEMERIS_TYPE":0,"CLASSIFICATION_TYPE":"U","NORAD_CAT_ID":59898,"ELEMENT_SET_NO":999,"REV_AT_EPOCH":10242,"BSTAR":0.00016151351,"MEAN_MOTION_DOT":4.182e-5,"MEAN_MOTION_DDOT":0},{"OBJECT_NAME":"STARLINK-31942","OBJECT_ID":"2024-100Q","EPOCH":"2026-03-18T06:54:26.728704","MEAN_MOTION":15.27577229,"ECCENTRICITY":0.00012047,"INCLINATION":43.0009,"RA_OF_ASC_NODE":76.685,"ARG_OF_PERICENTER":278.3764,"MEAN_ANOMALY":81.6951,"EPHEMERIS_TYPE":0,"CLASSIFICATION_TYPE":"U","NORAD_CAT_ID":59899,"ELEMENT_SET_NO":999,"REV_AT_EPOCH":10246,"BSTAR":6.001201e-6,"MEAN_MOTION_DOT":-9.7e-7,"MEAN_MOTION_DDOT":0},{"OBJECT_NAME":"STARLINK-31676","OBJECT_ID":"2024-100R","EPOCH":"2026-03-18T07:20:21.017184","MEAN_MOTION":15.27597774,"ECCENTRICITY":7.869e-5,"INCLINATION":43.004,"RA_OF_ASC_NODE":76.8205,"ARG_OF_PERICENTER":283.5879,"MEAN_ANOMALY":76.4885,"EPHEMERIS_TYPE":0,"CLASSIFICATION_TYPE":"U","NORAD_CAT_ID":59900,"ELEMENT_SET_NO":999,"REV_AT_EPOCH":10236,"BSTAR":-0.00010146179,"MEAN_MOTION_DOT":-3.054e-5,"MEAN_MOTION_DDOT":0},{"OBJECT_NAME":"STARLINK-31908","OBJECT_ID":"2024-100S","EPOCH":"2026-03-17T23:06:54.335232","MEAN_MOTION":15.27573238,"ECCENTRICITY":8.28e-5,"INCLINATION":43.0027,"RA_OF_ASC_NODE":71.6245,"ARG_OF_PERICENTER":266.5271,"MEAN_ANOMALY":93.5485,"EPHEMERIS_TYPE":0,"CLASSIFICATION_TYPE":"U","NORAD_CAT_ID":59901,"ELEMENT_SET_NO":999,"REV_AT_EPOCH":10249,"BSTAR":5.381168e-5,"MEAN_MOTION_DOT":1.219e-5,"MEAN_MOTION_DDOT":0},{"OBJECT_NAME":"STARLINK-31914","OBJECT_ID":"2024-100T","EPOCH":"2026-03-17T23:46:14.238048","MEAN_MOTION":15.27571202,"ECCENTRICITY":0.00013494,"INCLINATION":43.0061,"RA_OF_ASC_NODE":78.7486,"ARG_OF_PERICENTER":258.3,"MEAN_ANOMALY":101.77,"EPHEMERIS_TYPE":0,"CLASSIFICATION_TYPE":"U","NORAD_CAT_ID":59902,"ELEMENT_SET_NO":999,"REV_AT_EPOCH":10231,"BSTAR":-2.5099895e-5,"MEAN_MOTION_DOT":-9.53e-6,"MEAN_MOTION_DDOT":0},{"OBJECT_NAME":"STARLINK-31850","OBJECT_ID":"2024-100U","EPOCH":"2026-03-18T06:41:28.798656","MEAN_MOTION":15.27586193,"ECCENTRICITY":0.00014475,"INCLINATION":42.9985,"RA_OF_ASC_NODE":76.6022,"ARG_OF_PERICENTER":268.273,"MEAN_ANOMALY":91.7956,"EPHEMERIS_TYPE":0,"CLASSIFICATION_TYPE":"U","NORAD_CAT_ID":59903,"ELEMENT_SET_NO":999,"REV_AT_EPOCH":10241,"BSTAR":5.754869e-5,"MEAN_MOTION_DOT":1.322e-5,"MEAN_MOTION_DDOT":0},{"OBJECT_NAME":"STARLINK-31924","OBJECT_ID":"2024-100V","EPOCH":"2026-03-18T06:59:59.767872","MEAN_MOTION":15.27573808,"ECCENTRICITY":7.909e-5,"INCLINATION":43.0027,"RA_OF_ASC_NODE":76.7123,"ARG_OF_PERICENTER":279.3537,"MEAN_ANOMALY":80.7225,"EPHEMERIS_TYPE":0,"CLASSIFICATION_TYPE":"U","NORAD_CAT_ID":59904,"ELEMENT_SET_NO":999,"REV_AT_EPOCH":10246,"BSTAR":3.3572957e-5,"MEAN_MOTION_DOT":6.62e-6,"MEAN_MOTION_DDOT":0},{"OBJECT_NAME":"STARLINK-31898","OBJECT_ID":"2024-100W","EPOCH":"2026-03-17T17:06:14.340672","MEAN_MOTION":15.27568393,"ECCENTRICITY":0.00014224,"INCLINATION":43.0067,"RA_OF_ASC_NODE":76.6472,"ARG_OF_PERICENTER":259.9634,"MEAN_ANOMALY":100.1057,"EPHEMERIS_TYPE":0,"CLASSIFICATION_TYPE":"U","NORAD_CAT_ID":59905,"ELEMENT_SET_NO":999,"REV_AT_EPOCH":10241,"BSTAR":7.575834e-6,"MEAN_MOTION_DOT":-5.4e-7,"MEAN_MOTION_DDOT":0}]
