STARLINK-31951          
1 59890U 24100F   26077.28397782 -.00001257  00000+0 -36187-4 0  9991
2 59890  43.0000  76.6540 0000435 327.8232  32.2593 15.27562860102376
STARLINK-31949          
1 59891U 24100G   26077.29551747  .00000865  00000+0  40953-4 0  9994
2 59891  42.9966  76.7332 0000383 238.4214 121.6600 15.27578338102374
STARLINK-31977          
1 59892U 24100H   26077.27592614  .00000798  00000+0  38508-4 0  9999
2 59892  43.0018  69.6731 0001072 276.4922  83.5807 15.27577758102553
STARLINK-31963          
1 59893U 24100J   26076.72117256  .00001075  00000+0  48587-4 0  9991
2 59893  43.0052  80.1722 0000985 271.0589  89.0150 15.27575830102384
STARLINK-31961          
1 59894U 24100K   26076.70543369  .00001309  00000+0  57115-4 0  9995
2 59894  43.0090  73.1305 0002026 266.4976  93.5644 15.27571559102463
STARLINK-31964          
1 59895U 24100L   26077.27367691  .00002520  00000+0  10109-3 0  9998
2 59895  43.0020  76.5746 0001030 263.3325  96.7409 15.27569354102421
STARLINK-31905          
1 59896U 24100M   26076.71907876  .00001706  00000+0  71512-4 0  9993
2 59896  43.0105  76.6952 0002559 263.8559  96.2002 15.27577863102425
STARLINK-31928          
1 59897U 24100N   26075.75195170 -.00000902  00000+0 -23292-4 0  9994
2 59897  43.0036  85.7974 0000530 231.2998 128.7806 15.27572506102137
STARLINK-31953          
1 59898U 24100P   26076.71523196  .00004182  00000+0  16151-3 0  9992
2 59898  43.0105  76.6675 0002570 264.3550  95.7009 15.27564002102421
STARLINK-31942          
1 59899U 24100Q   26077.28780936 -.00000097  00000+0  60012-5 0  9992
2 59899  43.0009  76.6850 0001204 278.3764  81.6951 15.27577229102464
STARLINK-31676          
1 59900U 24100R   26077.30579881 -.00003054  00000+0 -10146-3 0  9991
2 59900  43.0040  76.8205 0000786 283.5879  76.4885 15.27597774102361
STARLINK-31908          
1 59901U 24100S   26076.96312888  .00001219  00000+0  53812-4 0  9992
2 59901  43.0027  71.6245 0000828 266.5271  93.5485 15.27573238102497
STARLINK-31914          
1 59902U 24100T   26076.99044257 -.00000953  00000+0 -25100-4 0  9993
2 59902  43.0061  78.7486 0001349 258.3000 101.7700 15.27571202102311
STARLINK-31850          
1 59903U 24100U   26077.27880554  .00001322  00000+0  57549-4 0  9995
2 59903  42.9985  76.6022 0001447 268.2730  91.7956 15.27586193102414
STARLINK-31924          
1 59904U 24100V   26077.29166398  .00000662  00000+0  33573-4 0  9998
2 59904  43.0027  76.7123 0000790 279.3537  80.7225 15.27573808102466
STARLINK-31898          
1 59905U 24100W   26076.71266598 -.00000054  00000+0  75758-5 0  9996
2 59905  43.0067  76.6472 0001422 259.9634 100.1057 15.27568393102410
